[{"OBJECT_NAME":"NUSAT-41 (C PAYNE-G)","OBJECT_ID":"2023-084N","EPOCH":"2026-03-09T21:55:54.837696","MEAN_MOTION":15.29680045,"ECCENTRICITY":0.00062175,"INCLINATION":97.5351,"RA_OF_ASC_NODE":204.1011,"ARG_OF_PERICENTER":322.2064,"MEAN_ANOMALY":37.8738,"EPHEMERIS_TYPE":0,"CLASSIFICATION_TYPE":"U","NORAD_CAT_ID":56944,"ELEMENT_SET_NO":999,"REV_AT_EPOCH":15260,"BSTAR":0.00059912824,"MEAN_MOTION_DOT":0.0001718,"MEAN_MOTION_DDOT":0},{"OBJECT_NAME":"STARLINK-33886","OBJECT_ID":"2025-085T","EPOCH":"2026-03-09T06:48:49.690080","MEAN_MOTION":15.27564387,"ECCENTRICITY":0.00013958,"INCLINATION":43.0039,"RA_OF_ASC_NODE":32.7072,"ARG_OF_PERICENTER":276.5494,"MEAN_ANOMALY":83.5198,"EPHEMERIS_TYPE":0,"CLASSIFICATION_TYPE":"U","NORAD_CAT_ID":63681,"ELEMENT_SET_NO":999,"REV_AT_EPOCH":4881,"BSTAR":0.00074586508,"MEAN_MOTION_DOT":0.00020309,"MEAN_MOTION_DDOT":0}]
